start=new Date('%Y-%m-27T00:00:00.000Z').valueOf();
sats=[{"GP_ID":"183211463","APOAPSIS":"548.636","PERIOD":"95.593","OBJECT_ID":"2020-038AB","COUNTRY_CODE":"US","MEAN_ANOMALY":"280.7408","MEAN_MOTION_DDOT":"0.0000000000000","TLE_LINE1":"1 45755U 20038AB  21233.93589126 -.00000691  00000-0 -27465-4 0  9999","RA_OF_ASC_NODE":"112.0457","TIME_SYSTEM":"UTC","CLASSIFICATION_TYPE":"U","OBJECT_NAME":"STARLINK-1478","MEAN_MOTION":"15.06394154","PERIAPSIS":"545.827","INCLINATION":"53.0567","ECCENTRICITY":"0.00020280","LAUNCH_DATE":"2020-06-13","SITE":"AFETR","NORAD_CAT_ID":"45755","SEMIMAJOR_AXIS":"6925.366","ELEMENT_SET_NO":"999","TLE_LINE2":"2 45755  53.0567 112.0457 0002028  79.3809 280.7408 15.06394154 66157","ARG_OF_PERICENTER":"79.3809","DECAY_DATE":null,"FILE":"3101032","CENTER_NAME":"EARTH","MEAN_MOTION_DOT":"-0.00000691","REV_AT_EPOCH":"6615","RCS_SIZE":"LARGE","MEAN_ELEMENT_THEORY":"SGP4","EPOCH":"2021-08-21T22:27:41.004864","OBJECT_TYPE":"PAYLOAD","EPHEMERIS_TYPE":"0","REF_FRAME":"TEME","BSTAR":"-0.00002746500000"},{"RA_OF_ASC_NODE":"112.0539","TLE_LINE1":"1 45756U 20038AC  21233.93219440  .00000818  00000-0  73799-4 0  9999","MEAN_MOTION_DDOT":"0.0000000000000","MEAN_ANOMALY":"278.2759","COUNTRY_CODE":"US","OBJECT_ID":"2020-038AC","GP_ID":"183211711","PERIOD":"95.592","APOAPSIS":"548.538","PERIAPSIS":"545.854","INCLINATION":"53.0546","MEAN_MOTION":"15.06405655","OBJECT_NAME":"STARLINK-1484","CLASSIFICATION_TYPE":"U","TIME_SYSTEM":"UTC","DECAY_DATE":null,"TLE_LINE2":"2 45756  53.0546 112.0539 0001938  81.8450 278.2759 15.06405655 66155","ARG_OF_PERICENTER":"81.8450","NORAD_CAT_ID":"45756","SEMIMAJOR_AXIS":"6925.331","ELEMENT_SET_NO":"999","LAUNCH_DATE":"2020-06-13","ECCENTRICITY":"0.00019380","SITE":"AFETR","BSTAR":"0.00007379900000","REF_FRAME":"TEME","EPHEMERIS_TYPE":"0","EPOCH":"2021-08-21T22:22:21.596160","OBJECT_TYPE":"PAYLOAD","RCS_SIZE":"LARGE","MEAN_ELEMENT_THEORY":"SGP4","MEAN_MOTION_DOT":"0.00000818","REV_AT_EPOCH":"6615","CENTER_NAME":"EARTH","FILE":"3101032"},{"CLASSIFICATION_TYPE":"U","TIME_SYSTEM":"UTC","MEAN_MOTION":"15.06396958","OBJECT_NAME":"STARLINK-1486","INCLINATION":"53.0564","PERIAPSIS":"545.673","OBJECT_ID":"2020-038AD","APOAPSIS":"548.773","PERIOD":"95.592","GP_ID":"183212962","MEAN_MOTION_DDOT":"0.0000000000000","MEAN_ANOMALY":"309.1923","COUNTRY_CODE":"US","RA_OF_ASC_NODE":"111.9772","TLE_LINE1":"1 45757U 20038AD  21233.95063483  .00000843  00000-0  75502-4 0  9998","CENTER_NAME":"EARTH","FILE":"3101032","MEAN_ELEMENT_THEORY":"SGP4","RCS_SIZE":"LARGE","REV_AT_EPOCH":"6615","MEAN_MOTION_DOT":"0.00000843","EPHEMERIS_TYPE":"0","OBJECT_TYPE":"PAYLOAD","EPOCH":"2021-08-21T22:48:54.849312","BSTAR":"0.00007550200000","REF_FRAME":"TEME","ELEMENT_SET_NO":"999","NORAD_CAT_ID":"45757","SEMIMAJOR_AXIS":"6925.358","SITE":"AFETR","ECCENTRICITY":"0.00022380","LAUNCH_DATE":"2020-06-13","ARG_OF_PERICENTER":"50.9265","TLE_LINE2":"2 45757  53.0564 111.9772 0002238  50.9265 309.1923 15.06396958 66150","DECAY_DATE":null},{"REF_FRAME":"TEME","BSTAR":"0.00001994600000","EPOCH":"2021-08-21T22:38:17.637216","OBJECT_TYPE":"PAYLOAD","EPHEMERIS_TYPE":"0","MEAN_MOTION_DOT":"0.00000015","REV_AT_EPOCH":"6615","RCS_SIZE":"LARGE","MEAN_ELEMENT_THEORY":"SGP4","FILE":"3101032","CENTER_NAME":"EARTH","DECAY_DATE":null,"TLE_LINE2":"2 45758  53.0566 112.0062 0002231  70.3250 289.7979 15.06397447 66158","ARG_OF_PERICENTER":"70.3250","LAUNCH_DATE":"2020-06-13","ECCENTRICITY":"0.00022310","SITE":"AFETR","SEMIMAJOR_AXIS":"6925.356","NORAD_CAT_ID":"45758","ELEMENT_SET_NO":"999","PERIAPSIS":"545.676","INCLINATION":"53.0566","OBJECT_NAME":"STARLINK-1487","MEAN_MOTION":"15.06397447","TIME_SYSTEM":"UTC","CLASSIFICATION_TYPE":"U","TLE_LINE1":"1 45758U 20038AE  21233.94325969  .00000015  00000-0  19946-4 0  9999","RA_OF_ASC_NODE":"112.0062","COUNTRY_CODE":"US","MEAN_MOTION_DDOT":"0.0000000000000","MEAN_ANOMALY":"289.7979","GP_ID":"183212699","PERIOD":"95.592","APOAPSIS":"548.766","OBJECT_ID":"2020-038AE"},{"PERIOD":"95.593","APOAPSIS":"548.606","GP_ID":"183211964","OBJECT_ID":"2020-038AF","TLE_LINE1":"1 45759U 20038AF  21233.92483810 -.00000743  00000-0 -30949-4 0  9994","RA_OF_ASC_NODE":"112.0965","COUNTRY_CODE":"US","MEAN_ANOMALY":"281.5509","MEAN_MOTION_DDOT":"0.0000000000000","TIME_SYSTEM":"UTC","CLASSIFICATION_TYPE":"U","INCLINATION":"53.0554","PERIAPSIS":"545.865","OBJECT_NAME":"STARLINK-1493","MEAN_MOTION":"15.06392924","SITE":"AFETR","LAUNCH_DATE":"2020-06-13","ECCENTRICITY":"0.00019790","ELEMENT_SET_NO":"999","NORAD_CAT_ID":"45759","SEMIMAJOR_AXIS":"6925.370","DECAY_DATE":null,"ARG_OF_PERICENTER":"78.5702","TLE_LINE2":"2 45759  53.0554 112.0965 0001979  78.5702 281.5509 15.06392924 66152","REV_AT_EPOCH":"6615","MEAN_MOTION_DOT":"-0.00000743","MEAN_ELEMENT_THEORY":"SGP4","RCS_SIZE":"LARGE","FILE":"3101032","CENTER_NAME":"EARTH","REF_FRAME":"TEME","BSTAR":"-0.00003094900000","OBJECT_TYPE":"PAYLOAD","EPOCH":"2021-08-21T22:11:46.011840","EPHEMERIS_TYPE":"0"},{"OBJECT_NAME":"STARLINK-1494","MEAN_MOTION":"15.06393306","INCLINATION":"53.0567","PERIAPSIS":"545.769","TIME_SYSTEM":"UTC","CLASSIFICATION_TYPE":"U","COUNTRY_CODE":"US","MEAN_ANOMALY":"286.1676","MEAN_MOTION_DDOT":"0.0000000000000","TLE_LINE1":"1 45760U 20038AG  21233.92852037 -.00000685  00000-0 -27071-4 0  9994","RA_OF_ASC_NODE":"112.0750","PERIOD":"95.593","APOAPSIS":"548.699","GP_ID":"183212212","OBJECT_ID":"2020-038AG","OBJECT_TYPE":"PAYLOAD","EPOCH":"2021-08-21T22:17:04.159968","EPHEMERIS_TYPE":"0","REF_FRAME":"TEME","BSTAR":"-0.00002707100000","FILE":"3101032","CENTER_NAME":"EARTH","REV_AT_EPOCH":"6616","MEAN_MOTION_DOT":"-0.00000685","MEAN_ELEMENT_THEORY":"SGP4","RCS_SIZE":"LARGE","ARG_OF_PERICENTER":"73.9546","TLE_LINE2":"2 45760  53.0567 112.0750 0002116  73.9546 286.1676 15.06393306 66161","DECAY_DATE":null,"SITE":"AFETR","ECCENTRICITY":"0.00021160","LAUNCH_DATE":"2020-06-13","ELEMENT_SET_NO":"999","NORAD_CAT_ID":"45760","SEMIMAJOR_AXIS":"6925.369"},{"OBJECT_ID":"2020-038AH","PERIOD":"93.891","APOAPSIS":"465.967","GP_ID":"183212462","RA_OF_ASC_NODE":"110.8360","TLE_LINE1":"1 45761U 20038AH  21233.77131353  .00365777  00000-0  10550-1 0  9994","MEAN_MOTION_DDOT":"0.0000000000000","MEAN_ANOMALY":"305.9156","COUNTRY_CODE":"US","CLASSIFICATION_TYPE":"U","TIME_SYSTEM":"UTC","INCLINATION":"53.0582","PERIAPSIS":"463.617","MEAN_MOTION":"15.33698152","OBJECT_NAME":"STARLINK-1495","ELEMENT_SET_NO":"999","SEMIMAJOR_AXIS":"6842.927","NORAD_CAT_ID":"45761","SITE":"AFETR","ECCENTRICITY":"0.00017170","LAUNCH_DATE":"2020-06-13","DECAY_DATE":null,"ARG_OF_PERICENTER":"54.2005","TLE_LINE2":"2 45761  53.0582 110.8360 0001717  54.2005 305.9156 15.33698152 66171","MEAN_ELEMENT_THEORY":"SGP4","RCS_SIZE":"LARGE","REV_AT_EPOCH":"6617","MEAN_MOTION_DOT":"0.00365777","CENTER_NAME":"EARTH","FILE":"3101032","BSTAR":"0.01055000000000","REF_FRAME":"TEME","EPHEMERIS_TYPE":"0","OBJECT_TYPE":"PAYLOAD","EPOCH":"2021-08-21T18:30:41.488992"},{"DECAY_DATE":null,"ARG_OF_PERICENTER":"64.9728","TLE_LINE2":"2 45762  53.0543 112.8053 0002349  64.9728 295.1505 15.06404798 66148","SITE":"AFETR","ECCENTRICITY":"0.00023490","LAUNCH_DATE":"2020-06-13","ELEMENT_SET_NO":"999","SEMIMAJOR_AXIS":"6925.334","NORAD_CAT_ID":"45762","REF_FRAME":"TEME","BSTAR":"0.00011509000000","OBJECT_TYPE":"PAYLOAD","EPOCH":"2021-08-21T18:23:32.942400","EPHEMERIS_TYPE":"0","REV_AT_EPOCH":"6614","MEAN_MOTION_DOT":"0.00001433","MEAN_ELEMENT_THEORY":"SGP4","RCS_SIZE":"LARGE","FILE":"3101032","CENTER_NAME":"EARTH","TLE_LINE1":"1 45762U 20038AJ  21233.76635350  .00001433  00000-0  11509-3 0  9993","RA_OF_ASC_NODE":"112.8053","COUNTRY_CODE":"US","MEAN_MOTION_DDOT":"0.0000000000000","MEAN_ANOMALY":"295.1505","PERIOD":"95.592","APOAPSIS":"548.826","GP_ID":"183213200","OBJECT_ID":"2020-038AJ","INCLINATION":"53.0543","PERIAPSIS":"545.572","OBJECT_NAME":"STARLINK-1499","MEAN_MOTION":"15.06404798","TIME_SYSTEM":"UTC","CLASSIFICATION_TYPE":"U"},{"DECAY_DATE":null,"ARG_OF_PERICENTER":"57.2737","TLE_LINE2":"2 45763  53.0555  88.7389 0001734  57.2737 302.8445 15.66187414 66662","ELEMENT_SET_NO":"999","NORAD_CAT_ID":"45763","SEMIMAJOR_AXIS":"6747.963","SITE":"AFETR","ECCENTRICITY":"0.00017340","LAUNCH_DATE":"2020-06-13","BSTAR":"-0.00009136400000","REF_FRAME":"TEME","EPHEMERIS_TYPE":"0","OBJECT_TYPE":"PAYLOAD","EPOCH":"2021-08-21T16:55:06.152448","MEAN_ELEMENT_THEORY":"SGP4","RCS_SIZE":"LARGE","REV_AT_EPOCH":"6666","MEAN_MOTION_DOT":"-0.00010135","CENTER_NAME":"EARTH","FILE":"3101032","RA_OF_ASC_NODE":"88.7389","TLE_LINE1":"1 45763U 20038AK  21233.70493232 -.00010135  00000-0 -91364-4 0  9998","MEAN_MOTION_DDOT":"0.0000000000000","MEAN_ANOMALY":"302.8445","COUNTRY_CODE":"US","OBJECT_ID":"2020-038AK","APOAPSIS":"370.998","PERIOD":"91.943","GP_ID":"183211464","INCLINATION":"53.0555","PERIAPSIS":"368.658","MEAN_MOTION":"15.66187414","OBJECT_NAME":"STARLINK-1501","CLASSIFICATION_TYPE":"U","TIME_SYSTEM":"UTC"},{"EPHEMERIS_TYPE":"0","OBJECT_TYPE":"PAYLOAD","EPOCH":"2021-08-21T08:39:40.369824","BSTAR":"-0.00002937200000","REF_FRAME":"TEME","CENTER_NAME":"EARTH","FILE":"3100831","MEAN_ELEMENT_THEORY":"SGP4","RCS_SIZE":"LARGE","REV_AT_EPOCH":"6608","MEAN_MOTION_DOT":"-0.00000719","ARG_OF_PERICENTER":"77.6574","TLE_LINE2":"2 45764  53.0536 114.6187 0002023  77.6574 282.4641 15.06395907 66083","DECAY_DATE":null,"ELEMENT_SET_NO":"999","SEMIMAJOR_AXIS":"6925.361","NORAD_CAT_ID":"45764","SITE":"AFETR","ECCENTRICITY":"0.00020230","LAUNCH_DATE":"2020-06-13","MEAN_MOTION":"15.06395907","OBJECT_NAME":"STARLINK-1502","INCLINATION":"53.0536","PERIAPSIS":"545.825","CLASSIFICATION_TYPE":"U","TIME_SYSTEM":"UTC","MEAN_MOTION_DDOT":"0.0000000000000","MEAN_ANOMALY":"282.4641","COUNTRY_CODE":"US","RA_OF_ASC_NODE":"114.6187","TLE_LINE1":"1 45764U 20038AL  21233.36088391 -.00000719  00000-0 -29372-4 0  9994","OBJECT_ID":"2020-038AL","PERIOD":"95.592","APOAPSIS":"548.627","GP_ID":"183183584"}];
